{
  "norad_id": 67498,
  "name": "STARLINK-36081",
  "history": [
    {
      "epoch": "2026-03-28T14:35:43.671840",
      "apogee_km": 483.8351983578186,
      "perigee_km": 482.0087844543059,
      "latitude_deg": 36.064845641593195,
      "longitude_deg": -91.81814239989035,
      "semi_major_axis_km": 6861.058991406062,
      "eccentricity": 0.0001331,
      "inclination_deg": 42.9938,
      "raan_deg": 207.6969,
      "arg_perigee_deg": 138.629,
      "mean_anomaly_deg": 221.4662,
      "mean_motion_rev_day": 15.27622449
    }
  ]
}